[{"OBJECT_NAME":"DELTA 1 DEB","OBJECT_ID":"1977-065CN","EPOCH":"2026-03-14T14:34:54.353856","MEAN_MOTION":16.07688855,"ECCENTRICITY":0.00054248,"INCLINATION":28.9751,"RA_OF_ASC_NODE":188.862,"ARG_OF_PERICENTER":237.852,"MEAN_ANOMALY":122.1579,"EPHEMERIS_TYPE":0,"CLASSIFICATION_TYPE":"U","NORAD_CAT_ID":10261,"ELEMENT_SET_NO":999,"REV_AT_EPOCH":47806,"BSTAR":0.0049204969,"MEAN_MOTION_DOT":0.03478823,"MEAN_MOTION_DDOT":0.018366005},{"OBJECT_NAME":"COSMOS 1908","OBJECT_ID":"1988-001A","EPOCH":"2026-03-15T02:26:43.759104","MEAN_MOTION":15.95768763,"ECCENTRICITY":0.00054594,"INCLINATION":82.435,"RA_OF_ASC_NODE":95.3836,"ARG_OF_PERICENTER":173.6547,"MEAN_ANOMALY":186.4799,"EPHEMERIS_TYPE":0,"CLASSIFICATION_TYPE":"U","NORAD_CAT_ID":18748,"ELEMENT_SET_NO":999,"REV_AT_EPOCH":9176,"BSTAR":0.00081070485,"MEAN_MOTION_DOT":0.00325869,"MEAN_MOTION_DDOT":4.0491703e-5},{"OBJECT_NAME":"CZ-2D DEB","OBJECT_ID":"2005-024J","EPOCH":"2026-03-11T21:08:51.902592","MEAN_MOTION":15.9816804,"ECCENTRICITY":0.00039515,"INCLINATION":97.1411,"RA_OF_ASC_NODE":113.6468,"ARG_OF_PERICENTER":141.8178,"MEAN_ANOMALY":218.3381,"EPHEMERIS_TYPE":0,"CLASSIFICATION_TYPE":"U","NORAD_CAT_ID":31409,"ELEMENT_SET_NO":999,"REV_AT_EPOCH":11877,"BSTAR":0.00071048273,"MEAN_MOTION_DOT":0.00324446,"MEAN_MOTION_DDOT":4.4977035e-5},{"OBJECT_NAME":"ZIYUAN 3-01 (ZY 3-01)","OBJECT_ID":"2012-001A","EPOCH":"2026-03-15T00:58:24.458304","MEAN_MOTION":16.11873672,"ECCENTRICITY":0.00060986,"INCLINATION":97.1592,"RA_OF_ASC_NODE":149.4422,"ARG_OF_PERICENTER":248.9409,"MEAN_ANOMALY":111.1224,"EPHEMERIS_TYPE":0,"CLASSIFICATION_TYPE":"U","NORAD_CAT_ID":38046,"ELEMENT_SET_NO":999,"REV_AT_EPOCH":78956,"BSTAR":0.00099324223,"MEAN_MOTION_DOT":0.01033273,"MEAN_MOTION_DDOT":0.00066659219},{"OBJECT_NAME":"ATLAS CENTAUR R/B","OBJECT_ID":"2012-048N","EPOCH":"2026-03-15T06:02:57.869088","MEAN_MOTION":15.98070231,"ECCENTRICITY":0.00191601,"INCLINATION":64.6194,"RA_OF_ASC_NODE":207.2574,"ARG_OF_PERICENTER":244.0147,"MEAN_ANOMALY":115.9043,"EPHEMERIS_TYPE":0,"CLASSIFICATION_TYPE":"U","NORAD_CAT_ID":38770,"ELEMENT_SET_NO":999,"REV_AT_EPOCH":10420,"BSTAR":0.0012232899,"MEAN_MOTION_DOT":0.00575372,"MEAN_MOTION_DDOT":0.00014937698},{"OBJECT_NAME":"NOAA 16 DEB","OBJECT_ID":"2000-055AJ","EPOCH":"2026-03-15T05:47:59.589024","MEAN_MOTION":15.97101796,"ECCENTRICITY":0.00091051,"INCLINATION":99.053,"RA_OF_ASC_NODE":251.5863,"ARG_OF_PERICENTER":0.6532,"MEAN_ANOMALY":359.475,"EPHEMERIS_TYPE":0,"CLASSIFICATION_TYPE":"U","NORAD_CAT_ID":41075,"ELEMENT_SET_NO":999,"REV_AT_EPOCH":55159,"BSTAR":0.0056014717,"MEAN_MOTION_DOT":0.02300946,"MEAN_MOTION_DDOT":0.0037623717},{"OBJECT_NAME":"STARLINK-1031","OBJECT_ID":"2019-074Z","EPOCH":"2026-03-15T08:00:01.999872","MEAN_MOTION":15.93720527,"ECCENTRICITY":0.00053354,"INCLINATION":53.0367,"RA_OF_ASC_NODE":91.2072,"ARG_OF_PERICENTER":28.178,"MEAN_ANOMALY":235.6124,"EPHEMERIS_TYPE":0,"CLASSIFICATION_TYPE":"U","NORAD_CAT_ID":44736,"ELEMENT_SET_NO":999,"REV_AT_EPOCH":601,"BSTAR":0.00062682425,"MEAN_MOTION_DOT":0.00230154,"MEAN_MOTION_DDOT":3.138707e-5},{"OBJECT_NAME":"STARLINK-1053","OBJECT_ID":"2019-074AX","EPOCH":"2026-03-15T08:00:01.999872","MEAN_MOTION":15.95942125,"ECCENTRICITY":0.00066121,"INCLINATION":53.0255,"RA_OF_ASC_NODE":54.5201,"ARG_OF_PERICENTER":85.8303,"MEAN_ANOMALY":344.5376,"EPHEMERIS_TYPE":0,"CLASSIFICATION_TYPE":"U","NORAD_CAT_ID":44758,"ELEMENT_SET_NO":999,"REV_AT_EPOCH":607,"BSTAR":0.0010386498,"MEAN_MOTION_DOT":0.00432811,"MEAN_MOTION_DDOT":8.6997566e-5},{"OBJECT_NAME":"ELECTRON KICK STAGE R/B","OBJECT_ID":"2020-007B","EPOCH":"2026-03-14T18:12:19.317024","MEAN_MOTION":16.04629184,"ECCENTRICITY":0.00127409,"INCLINATION":69.9479,"RA_OF_ASC_NODE":166.0688,"ARG_OF_PERICENTER":315.3474,"MEAN_ANOMALY":44.6712,"EPHEMERIS_TYPE":0,"CLASSIFICATION_TYPE":"U","NORAD_CAT_ID":45111,"ELEMENT_SET_NO":999,"REV_AT_EPOCH":10276,"BSTAR":0.0017048463,"MEAN_MOTION_DOT":0.01144358,"MEAN_MOTION_DDOT":0.00073223889},{"OBJECT_NAME":"STARLINK-1298","OBJECT_ID":"2020-019BF","EPOCH":"2026-03-15T07:12:08.512992","MEAN_MOTION":16.0141427,"ECCENTRICITY":0.00038832,"INCLINATION":53.0334,"RA_OF_ASC_NODE":24.9103,"ARG_OF_PERICENTER":55.7292,"MEAN_ANOMALY":304.4105,"EPHEMERIS_TYPE":0,"CLASSIFICATION_TYPE":"U","NORAD_CAT_ID":45413,"ELEMENT_SET_NO":999,"REV_AT_EPOCH":33201,"BSTAR":0.00082312587,"MEAN_MOTION_DOT":0.00466368,"MEAN_MOTION_DDOT":0.00010695304},{"OBJECT_NAME":"STARLINK-1398","OBJECT_ID":"2020-035AU","EPOCH":"2026-03-15T06:28:51.595968","MEAN_MOTION":16.00886796,"ECCENTRICITY":0.00051837,"INCLINATION":53.032,"RA_OF_ASC_NODE":270.4253,"ARG_OF_PERICENTER":248.2355,"MEAN_ANOMALY":111.8123,"EPHEMERIS_TYPE":0,"CLASSIFICATION_TYPE":"U","NORAD_CAT_ID":45699,"ELEMENT_SET_NO":999,"REV_AT_EPOCH":32141,"BSTAR":0.00099751338,"MEAN_MOTION_DOT":0.00548786,"MEAN_MOTION_DDOT":0.00014499455},{"OBJECT_NAME":"STARLINK-1484","OBJECT_ID":"2020-038AC","EPOCH":"2026-03-15T02:48:20.674080","MEAN_MOTION":16.1170429,"ECCENTRICITY":0.00039072,"INCLINATION":52.9956,"RA_OF_ASC_NODE":28.1804,"ARG_OF_PERICENTER":119.6452,"MEAN_ANOMALY":240.4971,"EPHEMERIS_TYPE":0,"CLASSIFICATION_TYPE":"U","NORAD_CAT_ID":45756,"ELEMENT_SET_NO":999,"REV_AT_EPOCH":31957,"BSTAR":0.00092232669,"MEAN_MOTION_DOT":0.00991851,"MEAN_MOTION_DDOT":0.00060504971},{"OBJECT_NAME":"STARLINK-1587","OBJECT_ID":"2020-057AS","EPOCH":"2026-03-14T23:46:03.476928","MEAN_MOTION":16.05054201,"ECCENTRICITY":0.00086547,"INCLINATION":53.0281,"RA_OF_ASC_NODE":188.8638,"ARG_OF_PERICENTER":329.4264,"MEAN_ANOMALY":30.6262,"EPHEMERIS_TYPE":0,"CLASSIFICATION_TYPE":"U","NORAD_CAT_ID":46157,"ELEMENT_SET_NO":999,"REV_AT_EPOCH":30832,"BSTAR":0.0016980649,"MEAN_MOTION_DOT":0.01192675,"MEAN_MOTION_DDOT":0.00081266154},{"OBJECT_NAME":"STARLINK-1752","OBJECT_ID":"2020-062P","EPOCH":"2026-03-15T08:00:01.999872","MEAN_MOTION":15.97539525,"ECCENTRICITY":0.00059681,"INCLINATION":53.0356,"RA_OF_ASC_NODE":298.0664,"ARG_OF_PERICENTER":256.7487,"MEAN_ANOMALY":352.04,"EPHEMERIS_TYPE":0,"CLASSIFICATION_TYPE":"U","NORAD_CAT_ID":46338,"ELEMENT_SET_NO":999,"REV_AT_EPOCH":606,"BSTAR":0.0010672045,"MEAN_MOTION_DOT":0.00485628,"MEAN_MOTION_DDOT":0.00010972318},{"OBJECT_NAME":"STARLINK-1726","OBJECT_ID":"2020-062AP","EPOCH":"2026-03-14T22:03:47.981376","MEAN_MOTION":16.03106872,"ECCENTRICITY":0.00062414,"INCLINATION":53.032,"RA_OF_ASC_NODE":233.1792,"ARG_OF_PERICENTER":276.6063,"MEAN_ANOMALY":83.4257,"EPHEMERIS_TYPE":0,"CLASSIFICATION_TYPE":"U","NORAD_CAT_ID":46362,"ELEMENT_SET_NO":999,"REV_AT_EPOCH":30678,"BSTAR":0.001413864,"MEAN_MOTION_DOT":0.00885583,"MEAN_MOTION_DDOT":0.00040242111},{"OBJECT_NAME":"STARLINK-1648","OBJECT_ID":"2020-070B","EPOCH":"2026-03-15T08:00:01.999872","MEAN_MOTION":15.95788538,"ECCENTRICITY":0.00060701,"INCLINATION":53.0407,"RA_OF_ASC_NODE":97.0218,"ARG_OF_PERICENTER":5.5269,"MEAN_ANOMALY":48.5501,"EPHEMERIS_TYPE":0,"CLASSIFICATION_TYPE":"U","NORAD_CAT_ID":46533,"ELEMENT_SET_NO":999,"REV_AT_EPOCH":605,"BSTAR":0.0011209404,"MEAN_MOTION_DOT":0.00463204,"MEAN_MOTION_DDOT":9.8315459e-5}]
