DELTA 1 DEB             
1 10261U 77065CN  26073.60757354  .03478823  18366-1  49205-2 0  9992
2 10261  28.9751 188.8620 0005424 237.8520 122.1579 16.07688855478065
COSMOS 1908             
1 18748U 88001A   26074.10189536  .00325869  40492-4  81070-3 0  9992
2 18748  82.4350  95.3836 0005459 173.6547 186.4799 15.95768763 91766
CZ-2D DEB               
1 31409U 05024J   26070.88115628  .00324446  44977-4  71048-3 0  9993
2 31409  97.1411 113.6468 0003951 141.8178 218.3381 15.98168040118771
ZIYUAN 3-01 (ZY 3-01)   
1 38046U 12001A   26074.04056086  .01033273  66659-3  99324-3 0  9997
2 38046  97.1592 149.4422 0006098 248.9409 111.1224 16.11873672789560
ATLAS CENTAUR R/B       
1 38770U 12048N   26074.25205867  .00575372  14938-3  12233-2 0  9994
2 38770  64.6194 207.2574 0019160 244.0147 115.9043 15.98070231104209
NOAA 16 DEB             
1 41075U 00055AJ  26074.24166191  .02300946  37624-2  56015-2 0  9993
2 41075  99.0530 251.5863 0009105   0.6532 359.4750 15.97101796551590
STARLINK-1031           
1 44736U 19074Z   26074.33335648  .00230154  31387-4  62682-3 0  9997
2 44736  53.0367  91.2072 0005335  28.1780 235.6124 15.93720527  6014
STARLINK-1053           
1 44758U 19074AX  26074.33335648  .00432811  86998-4  10386-2 0  9996
2 44758  53.0255  54.5201 0006612  85.8303 344.5376 15.95942125  6077
ELECTRON KICK STAGE R/B 
1 45111U 20007B   26073.75855691  .01144358  73224-3  17048-2 0  9994
2 45111  69.9479 166.0688 0012740 315.3474  44.6712 16.04629184102765
STARLINK-1298           
1 45413U 20019BF  26074.30009853  .00466368  10695-3  82313-3 0  9993
2 45413  53.0334  24.9103 0003883  55.7292 304.4105 16.01414270332010
STARLINK-1398           
1 45699U 20035AU  26074.27004162  .00548786  14499-3  99751-3 0  9996
2 45699  53.0320 270.4253 0005183 248.2355 111.8123 16.00886796321416
STARLINK-1484           
1 45756U 20038AC  26074.11690595  .00991851  60505-3  92233-3 0  9999
2 45756  52.9956  28.1804 0003907 119.6452 240.4971 16.11704290319578
STARLINK-1587           
1 46157U 20057AS  26073.99031802  .01192675  81266-3  16981-2 0  9991
2 46157  53.0281 188.8638 0008654 329.4264  30.6262 16.05054201308328
STARLINK-1752           
1 46338U 20062P   26074.33335648  .00485628  10972-3  10672-2 0  9991
2 46338  53.0356 298.0664 0005968 256.7487 352.0400 15.97539525  6067
STARLINK-1726           
1 46362U 20062AP  26073.91930534  .00885583  40242-3  14139-2 0  9995
2 46362  53.0320 233.1792 0006241 276.6063  83.4257 16.03106872306783
STARLINK-1648           
1 46533U 20070B   26074.33335648  .00463204  98315-4  11209-2 0  9998
2 46533  53.0407  97.0218 0006070   5.5269  48.5501 15.95788538  6052
